{
  "norad_id": 54651,
  "name": "ONEWEB-0584",
  "history": [
    {
      "epoch": "2026-03-28T22:10:59.756736Z",
      "apogee_km": 1178.7795397160617,
      "perigee_km": 1176.710436992371,
      "latitude_deg": -1.7191937981600812e-05,
      "longitude_deg": 100.89414268959914,
      "height_km": 1180.8696676894942,
      "semi_major_axis_km": 7555.8819883542155,
      "eccentricity": 0.00013692,
      "inclination_deg": 87.9169,
      "raan_deg": 259.9809,
      "arg_perigee_deg": 102.3996,
      "mean_anomaly_deg": 257.7291,
      "mean_motion_rev_day": 13.21828199
    },
    {
      "epoch": "2026-03-28T23:59:59.938656Z",
      "apogee_km": 1178.7818449888964,
      "perigee_km": 1176.710021888549,
      "latitude_deg": -4.032133589517517e-05,
      "longitude_deg": 73.55367389882176,
      "height_km": 1180.8700354998302,
      "semi_major_axis_km": 7555.882933438723,
      "eccentricity": 0.0001371,
      "inclination_deg": 87.9169,
      "raan_deg": 259.9658,
      "arg_perigee_deg": 102.3504,
      "mean_anomaly_deg": 257.7783,
      "mean_motion_rev_day": 13.21827951
    },
    {
      "epoch": "2026-03-29T23:37:02.357184Z",
      "apogee_km": 1178.82169129036,
      "perigee_km": 1176.6909293768467,
      "latitude_deg": -3.769418850334836e-05,
      "longitude_deg": 78.12696766754685,
      "height_km": 1180.89823809884,
      "semi_major_axis_km": 7555.893310333603,
      "eccentricity": 0.000141,
      "inclination_deg": 87.917,
      "raan_deg": 259.7691,
      "arg_perigee_deg": 102.9888,
      "mean_anomaly_deg": 257.1403,
      "mean_motion_rev_day": 13.21825228
    },
    {
      "epoch": "2026-03-30T05:04:02.854560Z",
      "apogee_km": 1178.8288156958697,
      "perigee_km": 1176.679315805486,
      "latitude_deg": 3.175041196516765e-05,
      "longitude_deg": -3.894331188161348,
      "height_km": 1180.900258624305,
      "semi_major_axis_km": 7555.891065750678,
      "eccentricity": 0.00014224,
      "inclination_deg": 87.917,
      "raan_deg": 259.7237,
      "arg_perigee_deg": 103.1085,
      "mean_anomaly_deg": 257.0208,
      "mean_motion_rev_day": 13.21825817
    },
    {
      "epoch": "2026-03-30T10:31:03.392544Z",
      "apogee_km": 1178.8351733436784,
      "perigee_km": 1176.6753970928703,
      "latitude_deg": 5.066775420279335e-05,
      "longitude_deg": -85.91580152521279,
      "height_km": 1180.9011133284682,
      "semi_major_axis_km": 7555.892285218274,
      "eccentricity": 0.00014292,
      "inclination_deg": 87.917,
      "raan_deg": 259.6783,
      "arg_perigee_deg": 103.026,
      "mean_anomaly_deg": 257.1034,
      "mean_motion_rev_day": 13.21825497
    },
    {
      "epoch": "2026-03-30T21:25:04.464192Z",
      "apogee_km": 1178.849891557502,
      "perigee_km": 1176.6639714431185,
      "latitude_deg": 9.356092888629846e-05,
      "longitude_deg": 110.04127603301674,
      "height_km": 1180.9157584405575,
      "semi_major_axis_km": 7555.89393150031,
      "eccentricity": 0.00014465,
      "inclination_deg": 87.917,
      "raan_deg": 259.5875,
      "arg_perigee_deg": 103.569,
      "mean_anomaly_deg": 256.5606,
      "mean_motion_rev_day": 13.21825065
    },
    {
      "epoch": "2026-03-31T21:02:06.805824Z",
      "apogee_km": 1178.8622960149787,
      "perigee_km": 1176.6605072207476,
      "latitude_deg": 4.760379712153871e-05,
      "longitude_deg": 114.61499017558431,
      "height_km": 1180.9409401676664,
      "semi_major_axis_km": 7555.898401617863,
      "eccentricity": 0.0001457,
      "inclination_deg": 87.917,
      "raan_deg": 259.3909,
      "arg_perigee_deg": 104.5803,
      "mean_anomaly_deg": 255.5493,
      "mean_motion_rev_day": 13.21823892
    }
  ]
}